[{"OBJECT_NAME":"ONEWEB-0639","OBJECT_ID":"2023-029H","EPOCH":"2026-04-11T00:14:11.510016","MEAN_MOTION":13.19727034,"ECCENTRICITY":0.0002714,"INCLINATION":87.9171,"RA_OF_ASC_NODE":318.3727,"ARG_OF_PERICENTER":76.5356,"MEAN_ANOMALY":283.6079,"EPHEMERIS_TYPE":0,"CLASSIFICATION_TYPE":"U","NORAD_CAT_ID":55803,"ELEMENT_SET_NO":999,"REV_AT_EPOCH":15004,"BSTAR":-0.00019175,"MEAN_MOTION_DOT":-6.4e-07,"MEAN_MOTION_DDOT":0.0},{"OBJECT_NAME":"ONEWEB-0640","OBJECT_ID":"2023-029J","EPOCH":"2026-04-11T06:24:02.614752","MEAN_MOTION":13.14501672,"ECCENTRICITY":0.0002292,"INCLINATION":87.8929,"RA_OF_ASC_NODE":303.107,"ARG_OF_PERICENTER":102.0666,"MEAN_ANOMALY":258.0721,"EPHEMERIS_TYPE":0,"CLASSIFICATION_TYPE":"U","NORAD_CAT_ID":55804,"ELEMENT_SET_NO":999,"REV_AT_EPOCH":15062,"BSTAR":-0.00037706,"MEAN_MOTION_DOT":-1.27e-06,"MEAN_MOTION_DDOT":0.0},{"OBJECT_NAME":"ONEWEB-0641","OBJECT_ID":"2023-029K","EPOCH":"2026-04-11T01:56:32.447904","MEAN_MOTION":13.19727758,"ECCENTRICITY":0.0001881,"INCLINATION":87.9173,"RA_OF_ASC_NODE":318.346,"ARG_OF_PERICENTER":81.8388,"MEAN_ANOMALY":278.2958,"EPHEMERIS_TYPE":0,"CLASSIFICATION_TYPE":"U","NORAD_CAT_ID":55805,"ELEMENT_SET_NO":999,"REV_AT_EPOCH":15006,"BSTAR":0.00032168999999999996,"MEAN_MOTION_DOT":1.42e-06,"MEAN_MOTION_DDOT":0.0},{"OBJECT_NAME":"ONEWEB-0642","OBJECT_ID":"2023-029L","EPOCH":"2026-04-11T01:49:44.117184","MEAN_MOTION":13.19726894,"ECCENTRICITY":0.0002468,"INCLINATION":87.9176,"RA_OF_ASC_NODE":318.3609,"ARG_OF_PERICENTER":71.9527,"MEAN_ANOMALY":288.1875,"EPHEMERIS_TYPE":0,"CLASSIFICATION_TYPE":"U","NORAD_CAT_ID":55806,"ELEMENT_SET_NO":999,"REV_AT_EPOCH":15005,"BSTAR":0.00021973,"MEAN_MOTION_DOT":1.01e-06,"MEAN_MOTION_DDOT":0.0},{"OBJECT_NAME":"ONEWEB-0643","OBJECT_ID":"2023-029M","EPOCH":"2026-04-11T02:01:25.997088","MEAN_MOTION":13.14501642,"ECCENTRICITY":0.0002089,"INCLINATION":87.8925,"RA_OF_ASC_NODE":303.1302,"ARG_OF_PERICENTER":71.2498,"MEAN_ANOMALY":288.8858,"EPHEMERIS_TYPE":0,"CLASSIFICATION_TYPE":"U","NORAD_CAT_ID":55807,"ELEMENT_SET_NO":999,"REV_AT_EPOCH":15057,"BSTAR":0.00055589,"MEAN_MOTION_DOT":2.19e-06,"MEAN_MOTION_DDOT":0.0},{"OBJECT_NAME":"ONEWEB-0644","OBJECT_ID":"2023-029N","EPOCH":"2026-04-11T01:42:53.721504","MEAN_MOTION":13.19727475,"ECCENTRICITY":0.0002052,"INCLINATION":87.9161,"RA_OF_ASC_NODE":318.3662,"ARG_OF_PERICENTER":77.2389,"MEAN_ANOMALY":282.8973,"EPHEMERIS_TYPE":0,"CLASSIFICATION_TYPE":"U","NORAD_CAT_ID":55808,"ELEMENT_SET_NO":999,"REV_AT_EPOCH":15005,"BSTAR":0.00021920000000000002,"MEAN_MOTION_DOT":1.01e-06,"MEAN_MOTION_DDOT":0.0},{"OBJECT_NAME":"ONEWEB-0645","OBJECT_ID":"2023-029P","EPOCH":"2026-04-11T02:14:44.951712","MEAN_MOTION":13.19723937,"ECCENTRICITY":0.0002228,"INCLINATION":87.9171,"RA_OF_ASC_NODE":318.3562,"ARG_OF_PERICENTER":87.4574,"MEAN_ANOMALY":272.6814,"EPHEMERIS_TYPE":0,"CLASSIFICATION_TYPE":"U","NORAD_CAT_ID":55809,"ELEMENT_SET_NO":999,"REV_AT_EPOCH":15005,"BSTAR":0.00017598,"MEAN_MOTION_DOT":8.3e-07,"MEAN_MOTION_DDOT":0.0},{"OBJECT_NAME":"ONEWEB-0646","OBJECT_ID":"2023-029Q","EPOCH":"2026-04-11T02:39:45.704160","MEAN_MOTION":13.19726264,"ECCENTRICITY":0.0001971,"INCLINATION":87.9174,"RA_OF_ASC_NODE":318.353,"ARG_OF_PERICENTER":78.5709,"MEAN_ANOMALY":281.5645,"EPHEMERIS_TYPE":0,"CLASSIFICATION_TYPE":"U","NORAD_CAT_ID":55810,"ELEMENT_SET_NO":999,"REV_AT_EPOCH":15004,"BSTAR":0.00016053,"MEAN_MOTION_DOT":7.7e-07,"MEAN_MOTION_DDOT":0.0},{"OBJECT_NAME":"ONEWEB-0648","OBJECT_ID":"2023-029R","EPOCH":"2026-04-11T06:44:35.482272","MEAN_MOTION":13.14500608,"ECCENTRICITY":0.000266,"INCLINATION":87.8932,"RA_OF_ASC_NODE":303.0582,"ARG_OF_PERICENTER":84.4773,"MEAN_ANOMALY":275.666,"EPHEMERIS_TYPE":0,"CLASSIFICATION_TYPE":"U","NORAD_CAT_ID":55811,"ELEMENT_SET_NO":999,"REV_AT_EPOCH":15060,"BSTAR":-0.00050749,"MEAN_MOTION_DOT":-1.75e-06,"MEAN_MOTION_DDOT":0.0},{"OBJECT_NAME":"ONEWEB-0649","OBJECT_ID":"2023-029S","EPOCH":"2026-04-11T01:26:58.242048","MEAN_MOTION":13.19723925,"ECCENTRICITY":0.0002044,"INCLINATION":87.9173,"RA_OF_ASC_NODE":318.3603,"ARG_OF_PERICENTER":85.0981,"MEAN_ANOMALY":275.0385,"EPHEMERIS_TYPE":0,"CLASSIFICATION_TYPE":"U","NORAD_CAT_ID":55812,"ELEMENT_SET_NO":999,"REV_AT_EPOCH":15007,"BSTAR":-0.0002287,"MEAN_MOTION_DOT":-7.9e-07,"MEAN_MOTION_DDOT":0.0},{"OBJECT_NAME":"ONEWEB-0650","OBJECT_ID":"2023-029T","EPOCH":"2026-04-11T01:20:09.100896","MEAN_MOTION":13.19726734,"ECCENTRICITY":0.0002189,"INCLINATION":87.9171,"RA_OF_ASC_NODE":318.3642,"ARG_OF_PERICENTER":78.1098,"MEAN_ANOMALY":282.028,"EPHEMERIS_TYPE":0,"CLASSIFICATION_TYPE":"U","NORAD_CAT_ID":55813,"ELEMENT_SET_NO":999,"REV_AT_EPOCH":15004,"BSTAR":7.3309e-05,"MEAN_MOTION_DOT":4.2e-07,"MEAN_MOTION_DDOT":0.0},{"OBJECT_NAME":"ONEWEB-0652","OBJECT_ID":"2023-029U","EPOCH":"2026-04-11T06:17:10.929984","MEAN_MOTION":13.14501102,"ECCENTRICITY":0.0001569,"INCLINATION":87.8922,"RA_OF_ASC_NODE":303.0748,"ARG_OF_PERICENTER":89.8447,"MEAN_ANOMALY":270.2862,"EPHEMERIS_TYPE":0,"CLASSIFICATION_TYPE":"U","NORAD_CAT_ID":55814,"ELEMENT_SET_NO":999,"REV_AT_EPOCH":15057,"BSTAR":-6.2937e-05,"MEAN_MOTION_DOT":-1.1e-07,"MEAN_MOTION_DDOT":0.0},{"OBJECT_NAME":"ONEWEB-0653","OBJECT_ID":"2023-029V","EPOCH":"2026-04-11T05:54:21.163392","MEAN_MOTION":13.14501043,"ECCENTRICITY":0.0001717,"INCLINATION":87.8932,"RA_OF_ASC_NODE":303.0714,"ARG_OF_PERICENTER":94.3383,"MEAN_ANOMALY":265.7943,"EPHEMERIS_TYPE":0,"CLASSIFICATION_TYPE":"U","NORAD_CAT_ID":55815,"ELEMENT_SET_NO":999,"REV_AT_EPOCH":15060,"BSTAR":0.00051557,"MEAN_MOTION_DOT":2.04e-06,"MEAN_MOTION_DDOT":0.0},{"OBJECT_NAME":"ONEWEB-0654","OBJECT_ID":"2023-029W","EPOCH":"2026-04-11T02:08:16.896480","MEAN_MOTION":13.14501119,"ECCENTRICITY":0.0001427,"INCLINATION":87.8925,"RA_OF_ASC_NODE":303.0999,"ARG_OF_PERICENTER":96.2714,"MEAN_ANOMALY":263.8579,"EPHEMERIS_TYPE":0,"CLASSIFICATION_TYPE":"U","NORAD_CAT_ID":55816,"ELEMENT_SET_NO":999,"REV_AT_EPOCH":15060,"BSTAR":0.0006162499999999999,"MEAN_MOTION_DOT":2.41e-06,"MEAN_MOTION_DDOT":0.0},{"OBJECT_NAME":"ONEWEB-0656","OBJECT_ID":"2023-029X","EPOCH":"2026-04-11T05:38:30.238080","MEAN_MOTION":13.20771169,"ECCENTRICITY":0.0001436,"INCLINATION":87.9138,"RA_OF_ASC_NODE":287.7946,"ARG_OF_PERICENTER":104.0286,"MEAN_ANOMALY":256.1008,"EPHEMERIS_TYPE":0,"CLASSIFICATION_TYPE":"U","NORAD_CAT_ID":55817,"ELEMENT_SET_NO":999,"REV_AT_EPOCH":15231,"BSTAR":0.00020607,"MEAN_MOTION_DOT":9.7e-07,"MEAN_MOTION_DDOT":0.0},{"OBJECT_NAME":"ONEWEB-0657","OBJECT_ID":"2023-029Y","EPOCH":"2026-04-11T01:13:19.386912","MEAN_MOTION":13.19725143,"ECCENTRICITY":0.000117,"INCLINATION":87.9172,"RA_OF_ASC_NODE":318.3635,"ARG_OF_PERICENTER":69.125,"MEAN_ANOMALY":291.0008,"EPHEMERIS_TYPE":0,"CLASSIFICATION_TYPE":"U","NORAD_CAT_ID":55818,"ELEMENT_SET_NO":999,"REV_AT_EPOCH":15005,"BSTAR":-0.0005575700000000001,"MEAN_MOTION_DOT":-2.1e-06,"MEAN_MOTION_DDOT":0.0}]