ONEWEB-0639             
1 55803U 23029H   26101.00985544 -.00000064  00000+0 -19175-3 0  9999
2 55803  87.9171 318.3727 0002714  76.5356 283.6079 13.19727034150045
ONEWEB-0640             
1 55804U 23029J   26101.26669693 -.00000127  00000+0 -37706-3 0  9992
2 55804  87.8929 303.1070 0002292 102.0666 258.0721 13.14501672150626
ONEWEB-0641             
1 55805U 23029K   26101.08093111  .00000142  00000+0  32169-3 0  9992
2 55805  87.9173 318.3460 0001881  81.8388 278.2958 13.19727758150062
ONEWEB-0642             
1 55806U 23029L   26101.07620506  .00000101  00000+0  21973-3 0  9992
2 55806  87.9176 318.3609 0002468  71.9527 288.1875 13.19726894150055
ONEWEB-0643             
1 55807U 23029M   26101.08432867  .00000219  00000+0  55589-3 0  9995
2 55807  87.8925 303.1302 0002089  71.2498 288.8858 13.14501642150570
ONEWEB-0644             
1 55808U 23029N   26101.07145511  .00000101  00000+0  21920-3 0  9994
2 55808  87.9161 318.3662 0002052  77.2389 282.8973 13.19727475150050
ONEWEB-0645             
1 55809U 23029P   26101.09357583  .00000083  00000+0  17598-3 0  9996
2 55809  87.9171 318.3562 0002228  87.4574 272.6814 13.19723937150055
ONEWEB-0646             
1 55810U 23029Q   26101.11094565  .00000077  00000+0  16053-3 0  9997
2 55810  87.9174 318.3530 0001971  78.5709 281.5645 13.19726264150046
ONEWEB-0648             
1 55811U 23029R   26101.28096623 -.00000175  00000+0 -50749-3 0  9994
2 55811  87.8932 303.0582 0002660  84.4773 275.6660 13.14500608150609
ONEWEB-0649             
1 55812U 23029S   26101.06039632 -.00000079  00000+0 -22870-3 0  9995
2 55812  87.9173 318.3603 0002044  85.0981 275.0385 13.19723925150078
ONEWEB-0650             
1 55813U 23029T   26101.05566089  .00000042  00000+0  73309-4 0  9998
2 55813  87.9171 318.3642 0002189  78.1098 282.0280 13.19726734150042
ONEWEB-0652             
1 55814U 23029U   26101.26193206 -.00000011  00000+0 -62937-4 0  9992
2 55814  87.8922 303.0748 0001569  89.8447 270.2862 13.14501102150570
ONEWEB-0653             
1 55815U 23029V   26101.24607828  .00000204  00000+0  51557-3 0  9998
2 55815  87.8932 303.0714 0001717  94.3383 265.7943 13.14501043150607
ONEWEB-0654             
1 55816U 23029W   26101.08908445  .00000241  00000+0  61625-3 0  9998
2 55816  87.8925 303.0999 0001427  96.2714 263.8579 13.14501119150600
ONEWEB-0656             
1 55817U 23029X   26101.23507220  .00000097  00000+0  20607-3 0  9996
2 55817  87.9138 287.7946 0001436 104.0286 256.1008 13.20771169152313
ONEWEB-0657             
1 55818U 23029Y   26101.05091883 -.00000210  00000+0 -55757-3 0  9993
2 55818  87.9172 318.3635 0001170  69.1250 291.0008 13.19725143150051
